STARLINK-31575          
1 59471C 24068S   26093.44145833  .00042015  00000+0  15205-2 0   939
2 59471  43.0010 251.2184 0002000 261.9924 283.5100 15.27584954    14
STARLINK-31610          
1 59473C 24068U   26093.49701389  .00025555  00000+0  92687-3 0   930
2 59473  42.9996 254.2373 0001135 263.3657 280.2033 15.27520947    18
STARLINK-31581          
1 59474C 24068V   26093.43034722  .00043239  00000+0  15655-2 0   933
2 59474  43.0012 247.6769 0001325 258.1809 280.0394 15.27569671    12
STARLINK-31566          
1 59475C 24068W   26093.46229167  .00044611  00000+0  16147-2 0   938
2 59475  42.9996 254.4814 0001486 261.6395  69.5585 15.27578830    15
STARLINK-31515          
1 59476C 24068X   26093.39354167  .00009125  00000+0  33062-3 0   937
2 59476  42.9997 254.9708 0001160 274.7339 355.5144 15.27561215    14
STARLINK-31531          
1 59477C 24068Y   26093.42965278  .00024107  00000+0  87381-3 0   933
2 59477  43.0000 199.6458 0001495 278.6561  33.4308 15.27541091    14
STARLINK-31753          
1 59484C 24071A   26093.45534722  .00025520  00000+0  92616-3 0   931
2 59484  43.0018 199.9594 0001370 280.3514  31.6509 15.27501171    13
STARLINK-31733          
1 59486C 24071C   26093.46576389  .00024653  00000+0  89494-3 0   935
2 59486  43.0001 199.5114 0001394 269.0452 263.0223 15.27491924    10
STARLINK-31657          
1 59487C 24071D   26093.42548611  .00027843  00000+0  10105-2 0   935
2 59487  42.9995 199.9576 0001378 269.2544 309.0784 15.27498882    16
STARLINK-31754          
1 59488C 24071E   26093.43173611 -.00013187  00000+0 -47779-3 0   937
2 59488  43.0025 207.5835 0001372 254.3735  52.3428 15.27573115    14
STARLINK-31638          
1 59489C 24071F   26093.48034722  .00018573  00000+0  67372-3 0   935
2 59489  42.9995 199.6272 0001351 267.9551 259.4851 15.27520835    19
STARLINK-31670          
1 59490C 24071G   26093.41645833  .00028438  00000+0  10324-2 0   936
2 59490  42.9999 211.5132 0001326 276.6803 153.0197 15.27490659    15
STARLINK-31712          
1 59491C 24071H   26093.47548611  .00017710  00000+0  64267-3 0   936
2 59491  42.9999 211.1764 0001349 273.7659 113.8372 15.27507514    13
STARLINK-31684          
1 59492C 24071J   26093.38659722  .00038233  00000+0  13881-2 0   931
2 59492  43.0028 207.8866 0001405 272.2017 124.8811 15.27482910    11
STARLINK-31678          
1 59493C 24071K   26093.41645833  .00010177  00000+0  36893-3 0   930
2 59493  43.0016 207.8170 0001524 258.1736 260.8240 15.27544365    10
STARLINK-31744          
1 59494C 24071L   26093.41923611  .00029393  00000+0  10671-2 0   939
2 59494  43.0025 207.7526 0001205 279.1398 276.4074 15.27489055    10
STARLINK-31719          
1 59495C 24071M   26093.39493056  .00033901  00000+0  12306-2 0   939
2 59495  43.0022 200.4758 0001397 271.7217 356.9085 15.27488706    13
STARLINK-31728          
1 59496C 24071N   26093.43173611  .00027804  00000+0  10090-2 0   930
2 59496  43.0001 199.9854 0001505 274.6579 309.7938 15.27500431    17
STARLINK-31720          
1 59497C 24071P   26093.44701389  .00023175  00000+0  84120-3 0   934
2 59497  43.0025 200.4003 0001371 270.1594 193.2443 15.27496368    17
STARLINK-31731          
1 59498C 24071Q   26093.45326389  .00022090  00000+0  80186-3 0   932
2 59498  43.0002 199.5629 0001380 269.0438 201.2825 15.27495735    10
STARLINK-31742          
1 59499C 24071R   26093.42687500  .00028428  00000+0  10319-2 0   936
2 59499  42.9998 199.8275 0001528 275.3824   0.1627 15.27493378    13
STARLINK-31512          
1 59500C 24071S   26093.43312500  .00014476  00000+0  52501-3 0   933
2 59500  43.0012 159.8594 0001446 275.0185 148.5342 15.27528403    10
STARLINK-31458          
1 59501C 24071T   26093.39909722  .00029857  00000+0  10838-2 0   932
2 59501  42.9996 200.0515 0001612 272.3355 181.9704 15.27492462    14
STARLINK-31357          
1 59502C 24071U   26093.47062500  .00029294  00000+0  10632-2 0   933
2 59502  43.0022 200.1470 0001355 273.9305   8.9933 15.27495593    14
STARLINK-31508          
1 59503C 24071V   26093.44562500  .00023739  00000+0  86158-3 0   931
2 59503  43.0025 200.3378 0001374 270.3874 213.6639 15.27499680    19
STARLINK-31535          
1 59504C 24071W   26093.50326389  .00027006  00000+0  97999-3 0   938
2 59504  43.0002 207.3745 0001344 274.1360 341.5707 15.27504069    14
STARLINK-31533          
1 59505C 24071X   26093.41993056  .00025778  00000+0  93512-3 0   931
2 59505  43.0021 200.5825 0001377 267.5592  32.5722 15.27515520    17
STARLINK-31524          
1 59506C 24071Y   26093.39701389  .00025998  00000+0  94354-3 0   934
2 59506  43.0026 193.2720 0001533 272.5338  37.7945 15.27499479    11
STARLINK-31635          
1 59511C 24073A   26093.41923611 -.00107760  00000+0 -39010-2 0   936
2 59511  43.0027 177.9922 0001344 270.2887  32.8056 15.27649714    13
STARLINK-31650          
1 59512C 24073B   26093.41854167 -.00049189  00000+0 -17828-2 0   939
2 59512  43.0008 178.4629 0001727 264.8042 196.5226 15.27581147    12
STARLINK-31658          
1 59513C 24073C   26093.46020833 -.00006867  00000+0 -24871-3 0   933
2 59513  43.0009 137.8525 0001328 276.5953 259.8860 15.27583092    14
STARLINK-31669          
1 59515C 24073E   26093.41923611  .00015408  00000+0  55883-3 0   932
2 59515  42.9999 178.1219 0001396 270.2648 336.3766 15.27526078    14
STARLINK-31671          
1 59516C 24073F   26093.42270833  .00017165  00000+0  62270-3 0   935
2 59516  43.0022 178.5727 0001431 274.8919 152.7804 15.27517351    10
STARLINK-31674          
1 59517C 24073G   26093.47756944 -.00002784  00000+0 -10096-3 0   935
2 59517  42.9994 177.9426 0001325 271.8528 232.2693 15.27536155    14
STARLINK-31679          
1 59519C 24073J   26093.46506944  .00026471  00000+0  96026-3 0   933
2 59519  43.0015 167.5277 0001535 276.7462 200.0874 15.27514376    10
STARLINK-31370          
1 59520C 24073K   26093.42131944  .00015972  00000+0  57960-3 0   933
2 59520  43.0015 178.5507 0001392 272.7177 161.4665 15.27507999    11
STARLINK-31404          
1 59521C 24073L   26093.46229167  .00014514  00000+0  52629-3 0   931
2 59521  43.0022 178.4527 0001355 275.1719 327.9581 15.27535107    17
STARLINK-31453          
1 59522C 24073M   26093.44840278  .00018874  00000+0  68450-3 0   934
2 59522  43.0025 160.4201 0001350 279.4700 100.5410 15.27527492    17
STARLINK-31476          
1 59523C 24073N   26093.42409722  .00016628  00000+0  60327-3 0   938
2 59523  43.0016 178.4810 0001048 266.0130 204.6711 15.27515966    19
STARLINK-31538          
1 59525C 24073Q   26093.43520833 -.00000188  00000+0 -68240-5 0   938
2 59525  42.9998 178.0796 0001342 270.4610  42.8826 15.27541823    16
STARLINK-31564          
1 59526C 24073R   26093.49354167 -.00051142  00000+0 -18539-2 0   939
2 59526  43.0005 177.6502 0001293 267.2371  49.6817 15.27576830    12
STARLINK-31452          
1 59527C 24073S   26093.45187500  .00026440  00000+0  95928-3 0   930
2 59527  43.0022 178.4607 0001486 272.8202 294.1960 15.27509195    12
STARLINK-31513          
1 59529C 24073U   26093.48659722  .00026687  00000+0  96822-3 0   932
2 59529  43.0022 174.7406 0001431 280.3540 129.3589 15.27510402    18
STARLINK-31392          
1 59530C 24073V   26093.40951389  .00094540  00000+0  34245-2 0   933
2 59530  43.0001 178.4567 0001957 291.4430 141.4310 15.27527684    17
STARLINK-31619          
1 59531C 24073W   26093.46715278  .00024093  00000+0  87451-3 0   939
2 59531  42.9995 177.9490 0001416 284.9129 183.1174 15.27497017    16
STARLINK-31509          
1 59533C 24073Y   26093.47340278  .00021088  00000+0  76487-3 0   934
2 59533  43.0020 178.4540 0000995 287.6122 355.4729 15.27522317    17
STARLINK-31734          
1 59534C 24074A   26093.48729167  .00027238  00000+0  98815-3 0   937
2 59534  42.9996 192.5860 0001498 279.2645  48.2219 15.27512452    16
STARLINK-31738          
1 59535C 24074B   26093.49145833  .00030656  00000+0  11123-2 0   935
2 59535  42.9998 199.6278 0001427 278.9437 337.8489 15.27507087    11
STARLINK-31721          
1 59536C 24074C   26093.42409722 -.00030230  00000+0 -10948-2 0   933
2 59536  42.9999 203.5798 0001350 249.5060 344.8455 15.27597855    19
STARLINK-31737          
1 59537C 24074D   26093.46576389  .00024182  00000+0  87772-3 0   939
2 59537  42.9996 203.5282 0001375 272.3538 113.6193 15.27497612    17
STARLINK-31725          
1 59538C 24074E   26093.43034722  .00223790  00000+0  12412-2 0   931
2 59538  42.9881 177.6083 0020539  36.1525  54.7122 15.78128280    11
STARLINK-31539          
1 59539C 24074F   26093.47201389  .00022695  00000+0  82391-3 0   936
2 59539  43.0012 203.6459 0000943 268.5820  88.1167 15.27492959    14
STARLINK-31397          
1 59540C 24074G   26093.49215278  .00023990  00000+0  87107-3 0   931
2 59540  43.0023 203.7230 0001420 280.7659 109.0056 15.27485501    18
STARLINK-31481          
1 59541C 24074H   26093.45395833  .00023908  00000+0  86764-3 0   931
2 59541  43.0026 203.2289 0001371 274.8336 201.7702 15.27503212    10
STARLINK-31540          
1 59542C 24074J   26093.47270833  .00019876  00000+0  72112-3 0   937
2 59542  42.9998 203.3542 0001055 255.9171 224.8589 15.27514126    11
STARLINK-31574          
1 59543C 24074K   26093.47548611  .00023913  00000+0  86778-3 0   930
2 59543  43.0018 203.6775 0001477 278.8065  75.7850 15.27504320    11
STARLINK-31556          
1 59544C 24074L   26093.50743056 -.00079942  00000+0 -28963-2 0   931
2 59544  43.0027 203.5364 0001381 258.1498 258.1248 15.27609351    18
STARLINK-31582          
1 59545C 24074M   26093.38243056  .00035209  00000+0  12772-2 0   930
2 59545  43.0024 204.3908 0001372 266.0237 218.4214 15.27511306    12
STARLINK-31519          
1 59546C 24074N   26093.42548611  .00028265  00000+0  10262-2 0   937
2 59546  43.0019 203.4715 0001384 270.3858  14.1189 15.27486187    13
